{"type":"FeatureCollection","crs":{"type":"name","properties":{"name":"EPSG:4326"}},"features":[{"type":"Feature","geometry":{"type":"Polygon","coordinates":[[[-117.000283662697,33.9212297216987],[-117.00004111757,33.9211626332401],[-116.999825521902,33.9213042643685],[-116.999466195789,33.9211477246866],[-116.998846357344,33.9211253618514],[-116.997840245124,33.9212819015744],[-116.997714480984,33.9210060940434],[-116.996636503542,33.9205811977194],[-116.997121592897,33.9204992000831],[-116.996780233089,33.9202606603106],[-116.996519721657,33.9202532067007],[-116.996807182547,33.920044484486],[-116.996888030025,33.9195226759666],[-116.996762266783,33.9193288615821],[-116.995872933754,33.9195152222922],[-116.995405810704,33.9193139519623],[-116.994938687655,33.9193884970537],[-116.99441766479,33.9191648638201],[-116.993932574537,33.9192244994065],[-116.994408680739,33.9185237786308],[-116.993007308896,33.918568505661],[-116.993330702398,33.9183746883606],[-116.992953410877,33.9179870524371],[-116.992809678635,33.9182405068943],[-116.992333572433,33.9179795978828],[-116.991929330555,33.9180615979439],[-116.991848482179,33.9184343244999],[-116.991587970747,33.9186132326677],[-116.991300509856,33.9183895973993],[-116.990788470144,33.9185535966535],[-116.990285413585,33.9184268699848],[-116.990195582056,33.9182405068943],[-116.990509992406,33.9179497796592],[-116.989988969541,33.9173534129956],[-116.989306249925,33.9177112334946],[-116.988866075436,33.9171894121769],[-116.988021659967,33.916809224773],[-116.987608434038,33.9155642879616],[-116.988084541139,33.9159519349068],[-116.988389968335,33.9156761093768],[-116.987904877184,33.91559410702],[-116.987824029706,33.915310825544],[-116.98799470961,33.9150051786848],[-116.987249107924,33.9145280692012],[-116.987195209007,33.9140062268995],[-116.986710119652,33.9139838629354],[-116.986701135601,33.9135589323391],[-116.985587224649,33.9134172883362],[-116.985578241496,33.9118666438557],[-116.984697891619,33.9115162539354],[-116.984203818213,33.9118144582142],[-116.98423076857,33.9122468533106],[-116.984015172003,33.9126196045551],[-116.983619914177,33.9125450542875],[-116.983386351304,33.9116131704405],[-116.983116857618,33.9112627794781],[-116.982416171696,33.9107632842337],[-116.981463957495,33.9103905233792],[-116.981553789023,33.9096673641188],[-116.980619541128,33.9097866492886],[-116.979918855206,33.9096226324166],[-116.979469697564,33.9091305821436],[-116.979855973136,33.9086459844015],[-116.981302260744,33.9083775906204],[-116.98094293463,33.9078557114044],[-116.980942933732,33.9071474416435],[-116.982137693958,33.9057979850747],[-116.983036009242,33.9053133683864],[-116.983170756535,33.9046125332259],[-116.983098891312,33.9039042357728],[-116.982802447268,33.9033450507504],[-116.98292821051,33.9030393617256],[-116.983997206596,33.9021073732078],[-116.984096021277,33.9016972953605],[-116.985766887706,33.9008398534879],[-116.987033512256,33.8992591561814],[-116.987599450885,33.8982973012427],[-116.987743181331,33.8974920196205],[-116.987437754134,33.894807691878],[-116.987599450885,33.8938681582128],[-116.987850979165,33.8934878675325],[-116.988300137705,33.892063626584],[-116.988488783017,33.8919368605302],[-116.989153536327,33.8899384060789],[-116.989566762256,33.8897519807014],[-116.989809306484,33.8893269300628],[-116.989782357026,33.8889317034541],[-116.990069817018,33.8885588486369],[-116.990393211419,33.8869779229455],[-116.990590840781,33.8864782846765],[-116.990860336265,33.8862620224288],[-116.99080643645,33.8860830463609],[-116.990608807087,33.8860308449371],[-116.990671689157,33.8837712384031],[-116.990824401857,33.8837786959489],[-116.990860335367,33.8839353042588],[-116.991363391926,33.8840546246829],[-116.99153407183,33.8840098795434],[-116.991650852817,33.8837115780137],[-116.991785600109,33.8837339506646],[-116.991821533619,33.8838458138312],[-116.992162892529,33.8838308987508],[-116.992701881699,33.8843752974959],[-116.993303752939,33.8846363093609],[-116.995073434049,33.8848376608254],[-116.994830888922,33.8840397103848],[-116.993905623281,33.8840844547629],[-116.994004437963,33.8839800494374],[-116.994866820635,33.8839203891941],[-116.995324962329,33.8840098787977],[-116.995190215036,33.8845766495764],[-116.996268194275,33.8847407138833],[-116.996438873281,33.8851732462893],[-116.996304125988,33.8861128757317],[-116.996663452102,33.8881636199608],[-116.996537687962,33.8884619059236],[-116.996789216242,33.8890733888864],[-116.99798397557,33.8893791294697],[-116.998145672321,33.8895208126674],[-116.998343302582,33.8892971010702],[-116.998594829963,33.8893269300628],[-116.998729577256,33.8895730119556],[-116.999591959928,33.8897370666536],[-117.000050101621,33.8900726320984],[-117.002340804698,33.8894089569422],[-117.001990461737,33.8892449023589],[-117.00129875807,33.8891554167553],[-117.000625021607,33.8894984415341],[-116.999277549579,33.8889913609386],[-116.998990088688,33.8888049334913],[-116.999169751745,33.8887751050619],[-116.998963139229,33.8886035913905],[-116.998064823945,33.8882009057632],[-116.998370251142,33.8867542046794],[-116.998163638627,33.8860755897624],[-116.998028891334,33.8858518683842],[-116.997310239107,33.8854342549672],[-116.996564637421,33.8841068265703],[-116.996546672013,33.8836668326943],[-116.99627717653,33.8832417517353],[-116.996349041753,33.88265259916],[-116.996834132006,33.882227512402],[-116.997391087482,33.8831075142217],[-116.997453969552,33.883487851182],[-116.997642615762,33.8837786959489],[-116.997849227379,33.8837712384031],[-116.998064823945,33.8841590299172],[-116.997831261971,33.8844200424438],[-116.997903127194,33.8847630862643],[-116.999807555596,33.8856654340757],[-117.000337561614,33.8860755890166],[-117.000472308907,33.8860233875882],[-117.000454343499,33.8857549225946],[-117.000705871779,33.8854044253592],[-117.001783849222,33.884800373553],[-117.002053343807,33.883860728909],[-117.001631135623,33.8837041204621],[-117.001361641936,33.8837936110384],[-117.001244860051,33.8836519175826],[-117.001074180147,33.8829509043923],[-117.000822651868,33.8825705650383],[-117.001388590497,33.8824587001998],[-117.001397573649,33.8820186970786],[-117.000346544767,33.8805718919035],[-117.001172994828,33.8805047707],[-117.001361641038,33.8803854453114],[-117.001577236706,33.8798932263195],[-117.001119095911,33.8795427050035],[-117.001137062217,33.8788342008204],[-117.001316725274,33.8783419721346],[-117.002349787851,33.8772829273836],[-117.002224023711,33.8770964736052],[-117.001954528227,33.8770442674289],[-117.001469438872,33.8764998211632],[-117.000436376295,33.8764625302471],[-116.999591959928,33.8769398534888],[-116.999151785439,33.877044266683],[-116.998909240312,33.8770293504137],[-116.998990088688,33.8767384826406],[-116.997777363054,33.8770293504137],[-116.997013794165,33.8806688428368],[-116.997076677133,33.8814742840423],[-116.996888031821,33.8818844583865],[-116.996196328154,33.8821902232431],[-116.995837001142,33.8829732772426],[-116.996043614556,33.8832715813537],[-116.995935815824,33.8834356481702],[-116.994992585674,33.8832864957861],[-116.991300509856,33.8834431057453],[-116.990905252029,33.8830329381483],[-116.990977115455,33.8815339452503],[-116.991552038135,33.8783494301549],[-116.991695768581,33.8764252400605],[-116.991920347402,33.8756570424815],[-116.993321719245,33.8733822450609],[-116.994031389218,33.8724573910035],[-116.995028518285,33.8719278333858],[-116.995271063412,33.8712565584444],[-116.995630389525,33.8710178816374],[-116.99602564825,33.8708015802047],[-116.996510739402,33.8709134603245],[-116.99697786335,33.8703391408202],[-116.997741430443,33.8698468638838],[-116.9983972006,33.8698394051205],[-117.000283662697,33.8691606549327],[-117.001110112758,33.8684595226983],[-117.00247555199,33.8684744404654],[-117.003086406384,33.8683028859866],[-117.004110486706,33.8683550990017],[-117.006589835992,33.8674451084216],[-117.007551033346,33.8668931426485],[-117.008116971076,33.8662516644284],[-117.008332567643,33.8656250996533],[-117.00819782035,33.8643495785813],[-117.007883409102,33.8633052781365],[-117.007901376306,33.8622609649188],[-117.008332567643,33.8612688555316],[-117.008664944298,33.8608884195511],[-117.00977885525,33.8612688555316],[-117.010111231905,33.8612390174767],[-117.010802934674,33.8603513305754],[-117.011270058622,33.8601424609822],[-117.011934811932,33.8606571733229],[-117.012518716867,33.8607168498288],[-117.012392952727,33.8610152317329],[-117.012608548395,33.8611495032496],[-117.013012790273,33.8608063645095],[-117.01331821747,33.8601126232797],[-117.014360263199,33.8595606101027],[-117.015456207846,33.8602991134115],[-117.015734685584,33.8601723001662],[-117.015896382335,33.8599261327407],[-117.016399438894,33.8602170578037],[-117.017378602554,33.8601350021171],[-117.018276918736,33.859590448744],[-117.019121334205,33.8587549628454],[-117.018833873314,33.8580388263152],[-117.019013536371,33.8577702725424],[-117.019974733725,33.8586281473069],[-117.022211538782,33.8602394366137],[-117.024035118809,33.861298693576],[-117.025634120015,33.862439990203],[-117.025993446129,33.8624996669549],[-117.027870925971,33.8640437490593],[-117.029946033379,33.865468457741],[-117.031356388375,33.8660428100143],[-117.031509101075,33.8663486316296],[-117.032236736455,33.8666842898037],[-117.033260815879,33.8669155197087],[-117.034365744577,33.8669826508541],[-117.035407791204,33.8668409294852],[-117.036090509922,33.8664828955051],[-117.036611532787,33.8665873222378],[-117.036961875748,33.8664754364479],[-117.037976972019,33.8665798631897],[-117.038453079119,33.8667961753198],[-117.038704607399,33.8672437159179],[-117.038920203067,33.8669155197087],[-117.039090882971,33.8669453557798],[-117.039189697652,33.8670945352333],[-117.038956135678,33.8673406827383],[-117.039378343862,33.8673854366182],[-117.039674787906,33.8672362569271],[-117.04142650271,33.8683998516039],[-117.042199053854,33.8691904902192],[-117.043932802352,33.8697424411384],[-117.046618764154,33.8713013102714],[-117.047588945559,33.8720247948855],[-117.050436605009,33.8746427137401],[-117.056410401649,33.8790653970665],[-117.057470413684,33.8802586619031],[-117.058961617056,33.881481741043],[-117.059455690462,33.8820634432623],[-117.058835852018,33.8824064965583],[-117.058979583361,33.8829434467742],[-117.059302976864,33.8828539553062],[-117.059590437755,33.8829658196265],[-117.060075528008,33.883472936039],[-117.060677399248,33.8838010685822],[-117.060641466637,33.8839949644917],[-117.062204535231,33.8851881603893],[-117.063282513572,33.8850837564144],[-117.063543025005,33.8852254482379],[-117.067558494325,33.8881785342837],[-117.068160365565,33.8882531058592],[-117.068564607443,33.8881188769764],[-117.069229360753,33.8881636199608],[-117.069552754255,33.8885886771419],[-117.069858181452,33.8887601908433],[-117.070433103234,33.8886035913905],[-117.070630732596,33.8879622763463],[-117.070828362857,33.8878578757665],[-117.071160738614,33.887865332955],[-117.072005154981,33.8883425916636],[-117.072220750649,33.8888944187168],[-117.072068037051,33.8894313280989],[-117.071511081575,33.8895804689942],[-117.071448199505,33.8897221526032],[-117.071061923933,33.8896177541773],[-117.070145642343,33.8910271221458],[-117.068726305092,33.892182935639],[-117.068384945284,33.8926825397484],[-117.068519691679,33.8934356706401],[-117.068178331871,33.8937563081887],[-117.068582573749,33.8941515109506],[-117.068052567731,33.8956502821408],[-117.06757646063,33.8959261724743],[-117.066821875792,33.8960529325986],[-117.066399667608,33.8957770426751],[-117.066345768691,33.8962318870017],[-117.065609150158,33.8967762073499],[-117.064872531625,33.8970520940408],[-117.063004035834,33.8972683281858],[-117.062788440166,33.8975069323123],[-117.061063675719,33.8979468547998],[-117.058287880593,33.8995126655869],[-117.05736261585,33.9003328403238],[-117.057326683239,33.9006981883485],[-117.057739908269,33.9011753752476],[-117.057775840881,33.9015034396915],[-117.057560245213,33.9016152788087],[-117.05714702108,33.9027933171979],[-117.056087008147,33.903538902232],[-117.05584446302,33.9035463580494],[-117.055610901046,33.9033450507504],[-117.054604787928,33.9020104458946],[-117.053966984974,33.9019582542188],[-117.05274527529,33.9021371969743],[-117.051990690451,33.9025621845134],[-117.051586448573,33.9026367435124],[-117.051029493097,33.9025174490827],[-117.05005931259,33.9026143758195],[-117.048927435332,33.9021297410337],[-117.048100985271,33.9028305958589],[-117.046942158554,33.9019955339905],[-117.04638520218,33.9020253577961],[-117.045810281296,33.901645103493],[-117.045486887794,33.9017047513389],[-117.045136544833,33.9019806220838],[-117.045154511139,33.9024876247037],[-117.045432988877,33.9025547286099],[-117.045873163366,33.9030020809191],[-117.046385203078,33.9032183014664],[-117.04638520218,33.9034196090647],[-117.046079775881,33.9037402090733],[-117.044579589357,33.9038222228353],[-117.044031617034,33.9048734831611],[-117.043717206684,33.9050375084258],[-117.042953638693,33.9061111205466],[-117.042261935924,33.906051476529],[-117.042234986465,33.9064988104895],[-117.041722946753,33.9063720658945],[-117.041794811976,33.9069834204386],[-117.041453452168,33.9069237762859],[-117.040878530386,33.9063646103242],[-117.040312591757,33.9065509993856],[-117.040034114019,33.9070057869852],[-117.040294625452,33.9077513351778],[-117.040366490674,33.9088696452402],[-117.040061063478,33.9090112968012],[-117.039333428098,33.910137045574],[-117.039144781888,33.9102637845708],[-117.039010034595,33.9101892322426],[-117.038794438927,33.9097717379992],[-117.038587826412,33.9096673641188],[-117.038695624246,33.9093020545309],[-117.037985955172,33.9088100024073],[-117.037941039407,33.9086310736581],[-117.038192566789,33.908593796788],[-117.038435111915,33.9082806704361],[-117.038417146508,33.9080271863564],[-117.038030871834,33.90785571215],[-117.037177471416,33.9078482559639],[-117.037096622142,33.9079153556507],[-117.037878157337,33.9091678587789],[-117.037617645905,33.9101966874783],[-117.037420017441,33.9103905233792],[-117.036099493075,33.9105321724127],[-117.035344908236,33.9102265084149],[-117.034895750594,33.9104799859541],[-117.034689138079,33.9107856482973],[-117.034123200348,33.9109272974196],[-117.033844721712,33.9113000551809],[-117.03399743531,33.9116728113119],[-117.033799805948,33.9120753861022],[-117.032757760218,33.9124108636415],[-117.032479283378,33.9126792447222],[-117.03166181647,33.9125152341622],[-117.031473169362,33.9125972394817],[-117.031670798724,33.9126046945068],[-117.032101990061,33.9129401699626],[-117.032110973213,33.9132681891314],[-117.031571984043,33.913685666993],[-117.031850461781,33.9140658660962],[-117.031661815571,33.9143566073281],[-117.030925197038,33.91428205858],[-117.030089763824,33.9145653434758],[-117.02985620185,33.9144833400502],[-117.029883151309,33.9142596931974],[-117.029505858889,33.9140882315297],[-117.029245347457,33.9141255059967],[-117.029083650706,33.91386458364],[-117.028868055936,33.914736804929],[-117.028418898294,33.9151617296521],[-117.02814940281,33.9151170015792],[-117.027951773448,33.9154375568471],[-117.027457700042,33.9152586420115],[-117.027278036985,33.9148933563893],[-117.026586334216,33.9150126342448],[-117.02602937874,33.9152586420115],[-117.025921580906,33.9154748307238],[-117.025463440111,33.9156090165453],[-117.025346658226,33.9159072072486],[-117.024493259604,33.9167123141771],[-117.023747657918,33.9165781308385],[-117.023460197027,33.9166601315028],[-117.023397314957,33.9165184926545],[-117.023981219892,33.9160190274682],[-117.023505112792,33.9157357474048],[-117.022957140468,33.9157432021554],[-117.023046971997,33.9161084841347],[-117.022507982826,33.9160935746968],[-117.022373235534,33.9165408566988],[-117.022094757795,33.9161979407073],[-117.021789330599,33.9161159388527],[-117.021456953944,33.9162948518882],[-117.021178476206,33.9161308490321],[-117.020980846843,33.9158550233358],[-117.021340173855,33.9158028401365],[-117.021079660626,33.9154002822085],[-117.020531690099,33.9153182803318],[-117.019318962669,33.9155344696383],[-117.019363878433,33.9152511872186],[-117.02011846417,33.9147144404112],[-117.019336929873,33.9143491524562],[-117.018762008091,33.9145653434758],[-117.019759138057,33.9132458249736],[-117.019220148886,33.9132756433523],[-117.01887878818,33.9134321982423],[-117.018312850449,33.91418514511],[-117.016839613383,33.9145727983288],[-117.016570119696,33.9148560822582],[-117.016381472588,33.9152959159666],[-117.016552152492,33.916279942483],[-117.015096881732,33.9182554159565],[-117.014054835104,33.9183374157522],[-117.013560762596,33.9185386876435],[-117.013336183775,33.918874139739],[-117.013434999355,33.9195599488019],[-117.013093638649,33.9205290174145],[-117.010057332988,33.9205811977194],[-117.007892393154,33.9202904792164],[-117.007622898568,33.9205811977194],[-117.005547790262,33.9208495530682],[-117.004397946698,33.9207824643102],[-117.004362014087,33.9209464589586],[-117.003095389536,33.9211626332401],[-117.002250974068,33.9209688218408],[-117.001181977981,33.9212297216987],[-117.00083163502,33.9211402704089],[-117.000427393142,33.9213042643685],[-117.000283662697,33.9212297216987]],[[-117.036809162149,33.8726736882403],[-117.036485768647,33.8730167792847],[-117.036773229538,33.873098822591],[-117.037321201861,33.8727557318764],[-117.037662561669,33.8726960637852],[-117.039108849277,33.8726736882403],[-117.039396310168,33.8725618104276],[-117.039360377556,33.8721963418843],[-117.039108849277,33.8718830818873],[-117.039162748194,33.8716816998536],[-117.038821388386,33.871159596072],[-117.038030870936,33.8705106912068],[-117.037491881765,33.8703316820999],[-117.037312218708,33.8704361041245],[-117.037294251504,33.8709880469896],[-117.036611531889,33.871420648362],[-117.03630610559,33.8711894306599],[-117.036791195844,33.8706001956194],[-117.036952892595,33.8700258740073],[-117.035928813171,33.8695858067808],[-117.034734053843,33.8688697603429],[-117.034266929895,33.8681984613525],[-117.034410660341,33.8680269063192],[-117.033817771355,33.8676912541699],[-117.033557261719,33.8679001045512],[-117.033745907031,33.8686832889307],[-117.033656075502,33.869734982366],[-117.034257946742,33.8699139927241],[-117.034356761424,33.8705927369219],[-117.034958632664,33.8709432949984],[-117.035273043013,33.8713982724827],[-117.036144408839,33.8717637444432],[-117.036881027372,33.8724424739324],[-117.036809162149,33.8726736882403]]]},"properties":{"FIRE_NAME":"RABBIT","UNIT_ID":"RRU","INC_NUM":"00102458","IRWINID":"{04F24B12-E13F-4C7E-80AF-C8AA1A4C8FAB}","ALARM_DATE":1689292800000,"CONT_DATE":1690070400000,"GIS_ACRES":8354.776,"AGENCY":"CDF","YEAR_":2023}}]}